     2.10           N: GPS NAV DATA                         RINEX VERSION / TYPE
teqc  2006Apr5      Rede Brasileira de M20070820 07:00:17UTCPGM / RUN BY / DATE
Linux 2.4.20-8|Pentium IV|gcc|Linux|486/DX+                 COMMENT
     2              NAVIGATION DATA                         COMMENT
CCRINEXN V1.6.0 UX  CDDIS               20-AUG-07 02:51     COMMENT
IGS BROADCAST EPHEMERIS FILE                                COMMENT
    5.5880D-09  1.4900D-08 -5.9600D-08 -1.1920D-07          ION ALPHA
    7.7820D+04  3.2770D+04 -6.5540D+04 -2.6210D+05          ION BETA
    6.519258022310D-09 2.398081733190D-14   233472     1441 DELTA-UTC: A0,A1,T,W
    14                                                      LEAP SECONDS
Orbitas transmitidas adaptadas do arquivo brdc de orbitas   COMMENT
Transmitidas disponibilizadas pelo IGS                      COMMENT
                                                            END OF HEADER
29 07  8 19 18  0  0.0 5.178619176150D-06 2.273736754430D-13 0.000000000000D+00
    2.280000000000D+02-3.918750000000D+01 3.840159745750D-09 1.648209791010D-01
   -2.155080437660D-06 1.022274710700D-02 7.916241884230D-06 5.153672050480D+03
    6.480000000000D+04 5.587935447690D-08 6.651236015710D-01-1.378357410430D-07
    9.893244554150D-01 2.418125000000D+02-6.604782090770D-01-7.897114961960D-09
    3.321566979800D-11 1.000000000000D+00 1.441000000000D+03 0.000000000000D+00
    2.000000000000D+00 0.000000000000D+00-6.984919309620D-09 2.280000000000D+02
    6.439800000000D+04 4.000000000000D+00
30 07  8 19 18  0  0.0 4.295818507670D-05 1.136868377220D-12 0.000000000000D+00
    1.670000000000D+02-3.253125000000D+01 5.187716089200D-09 1.175070043340D+00
   -1.795589923860D-06 1.010182348550D-02 6.623566150670D-06 5.153727968220D+03
    6.480000000000D+04-2.328306436540D-07 2.720280921870D+00-5.215406417850D-08
    9.470239597150D-01 2.464062500000D+02 1.345353074330D+00-8.407135905240D-09
   -4.821629411650D-11 1.000000000000D+00 1.441000000000D+03 0.000000000000D+00
    2.800000000000D+00 0.000000000000D+00-7.450580596920D-09 9.350000000000D+02
    5.761800000000D+04 4.000000000000D+00
31 07  8 19 18  0  0.0 1.232326030730D-05-1.250555214940D-12 0.000000000000D+00
    2.000000000000D+00-2.237500000000D+01 4.551261006860D-09-2.682844315710D+00
   -9.983777999880D-07 6.273803650400D-03 7.513910532000D-06 5.153551441190D+03
    6.480000000000D+04 5.774199962620D-08 1.706481987420D+00 1.322478055950D-07
    9.634483194670D-01 2.346875000000D+02-1.330444422050D+00-7.904972130960D-09
    4.146601294020D-10 1.000000000000D+00 1.441000000000D+03 0.000000000000D+00
    2.000000000000D+00 0.000000000000D+00-1.303851604460D-08 2.000000000000D+00
    5.761800000000D+04 4.000000000000D+00
32 07  8 19 18  0  0.0 1.945439726110D-05 1.841726771090D-11 0.000000000000D+00
    1.070000000000D+02 1.531250000000D+00 4.352681306650D-09-7.120657856550D-01
    1.415610313420D-07 1.484211639030D-02 4.479661583900D-06 5.153557971950D+03
    6.480000000000D+04-2.272427082060D-07-3.010811115680D-01 9.499490261080D-08
    9.733501858170D-01 3.039062500000D+02-1.386489782120D+00-8.379991917440D-09
    2.964409193830D-11 1.000000000000D+00 1.441000000000D+03 0.000000000000D+00
    2.000000000000D+00 6.300000000000D+01-3.259629011150D-09 1.070000000000D+02
    5.761800000000D+04 4.000000000000D+00
 5 07  8 19 19 59 44.0 3.077466972170D-04 3.819877747450D-11 0.000000000000D+00
    6.700000000000D+01-3.221875000000D+01 5.208431237780D-09 2.674850201330D+00
   -1.776963472370D-06 8.251910912800D-03 6.085261702540D-06 5.153730604170D+03
    7.198400000000D+04 2.793967723850D-08 2.670595659590D+00-1.583248376850D-07
    9.406917729370D-01 2.492500000000D+02 1.183778231450D+00-8.213199255570D-09
    1.071473202590D-12 1.000000000000D+00 1.441000000000D+03 0.000000000000D+00
    2.000000000000D+00 0.000000000000D+00-4.190951585770D-09 6.700000000000D+01
    6.984600000000D+04 4.000000000000D+00
10 07  8 19 19 59 44.0 1.063477247950D-04 4.547473508860D-13 0.000000000000D+00
    9.000000000000D+00 4.312500000000D+00 4.331608849380D-09 1.236700744180D+00
    3.557652235030D-07 7.513090269640D-03 4.446133971210D-06 5.153682149890D+03
    7.198400000000D+04-5.401670932770D-08-3.586448416260D-01 6.332993507380D-08
    9.680174193200D-01 2.985937500000D+02 4.985392341830D-01-8.177840626900D-09
   -2.103659052510D-10 1.000000000000D+00 1.441000000000D+03 0.000000000000D+00
    2.000000000000D+00 0.000000000000D+00-2.328306436540D-09 9.000000000000D+00
    6.481800000000D+04 4.000000000000D+00
19 07  8 19 19 59 44.0 5.941325798630D-05 2.614797267600D-12 0.000000000000D+00
    1.120000000000D+02 1.043750000000D+01 4.611977821670D-09 9.703703548140D-01
    3.352761268620D-07 4.168367013330D-03 9.534880518910D-06 5.153584341050D+03
    7.198400000000D+04 6.146728992460D-08-2.412510251650D+00-9.126961231230D-08
    9.576347444620D-01 1.913125000000D+02-8.187249338080D-01-7.940687904380D-09
   -3.385855320180D-10 1.000000000000D+00 1.441000000000D+03 0.000000000000D+00
    2.000000000000D+00 0.000000000000D+00-1.490116119380D-08 1.120000000000D+02
    7.054800000000D+04 4.000000000000D+00
21 07  8 19 19 59 44.0 7.861200720070D-05-1.136868377220D-13 0.000000000000D+00
    2.300000000000D+01 7.590625000000D+01 4.938062832990D-09-2.318767947460D+00
    3.777444362640D-06 1.293621049260D-02 6.580725312230D-06 5.153616199490D+03
    7.198400000000D+04-2.235174179080D-08-1.400465764140D+00-1.825392246250D-07
    9.382434610350D-01 2.418750000000D+02-2.803943913600D+00-8.171411800670D-09
    8.964659128320D-11 0.000000000000D+00 1.441000000000D+03 0.000000000000D+00
    2.000000000000D+00 0.000000000000D+00-1.210719347000D-08 2.300000000000D+01
    6.819000000000D+04 4.000000000000D+00
 1 07  8 19 20  0  0.0 1.471028663220D-04 2.387423592150D-12 0.000000000000D+00
    1.580000000000D+02-4.921875000000D+01 3.726226640870D-09-3.499039602300D-01
   -2.553686499600D-06 6.756647373550D-03 7.893890142440D-06 5.153401897430D+03
    7.200000000000D+04-6.146728992460D-08 7.142282916410D-01 9.499490261080D-08
    9.907426462360D-01 2.453125000000D+02-1.803718973230D+00-7.827826060380D-09
    6.285976121850D-11 1.000000000000D+00 1.441000000000D+03 0.000000000000D+00
    4.000000000000D+00 0.000000000000D+00-3.725290298460D-09 4.140000000000D+02
    6.481800000000D+04 4.000000000000D+00
 2 07  8 19 20  0  0.0 1.302571035920D-04 2.728484105320D-12 0.000000000000D+00
    1.940000000000D+02 6.518750000000D+01 4.946634657440D-09 5.607495212170D-01
    3.183260560040D-06 8.657513884830D-03 6.817281246190D-06 5.153620138170D+03
    7.200000000000D+04 7.823109626770D-08-1.437034047950D+00-1.396983861920D-07
    9.453069313020D-01 2.433437500000D+02 2.379196325660D+00-8.378205684780D-09
   -6.964576138020D-11 1.000000000000D+00 1.441000000000D+03 0.000000000000D+00
    2.000000000000D+00 0.000000000000D+00-1.722946763040D-08 4.500000000000D+02
    6.481800000000D+04 4.000000000000D+00
 3 07  8 19 20  0  0.0 1.037106849250D-04 5.456968210640D-12 0.000000000000D+00
    1.160000000000D+02 2.281250000000D+00 5.471299330150D-09-2.579551014370D-02
    1.862645149230D-07 9.667503065430D-03 8.668750524520D-06 5.153627988820D+03
    7.200000000000D+04 1.676380634310D-08-2.578273611860D+00 8.940696716310D-08
    9.260776572740D-01 1.905625000000D+02 7.489864162110D-01-8.517854802840D-09
   -3.496574217780D-10 1.000000000000D+00 1.441000000000D+03 0.000000000000D+00
    2.000000000000D+00 0.000000000000D+00-4.190951585770D-09 6.280000000000D+02
    6.751800000000D+04 4.000000000000D+00
 4 07  8 19 20  0  0.0 5.052424967290D-07-2.387423592150D-12 0.000000000000D+00
    1.520000000000D+02 7.193750000000D+01 4.848059287350D-09-3.090328166860D+00
    3.647059202190D-06 7.713875849730D-03 7.160007953640D-06 5.153604686740D+03
    7.200000000000D+04-6.519258022310D-08-1.417830401320D+00-4.842877388000D-08
    9.447003688940D-01 2.342500000000D+02 2.706915398010D-01-8.125695671880D-09
   -2.428672540860D-11 1.000000000000D+00 1.441000000000D+03 0.000000000000D+00
    2.000000000000D+00 0.000000000000D+00-6.053596735000D-09 4.080000000000D+02
    6.481800000000D+04 4.000000000000D+00
 6 07  8 19 20  0  0.0 2.461378462610D-04 1.364242052660D-12 0.000000000000D+00
    4.400000000000D+01 1.237500000000D+01 5.072711140030D-09-2.158872443830D+00
    5.811452865600D-07 5.758931511080D-03 9.199604392050D-06 5.153715150830D+03
    7.200000000000D+04 7.823109626770D-08-2.516151028220D+00 7.450580596920D-08
    9.336062857520D-01 1.849062500000D+02-1.690862775360D+00-8.077122082280D-09
   -2.067943316590D-10 1.000000000000D+00 1.441000000000D+03 0.000000000000D+00
    2.000000000000D+00 0.000000000000D+00-4.656612873080D-09 4.400000000000D+01
    6.705600000000D+04 4.000000000000D+00
 7 07  8 19 20  0  0.0 1.382078044120D-04-2.455635694790D-11 0.000000000000D+00
    1.210000000000D+02 1.253125000000D+01 5.029495212950D-09-2.283735066390D+00
    6.053596735000D-07 1.050964603200D-02 9.039416909220D-06 5.153594663620D+03
    7.200000000000D+04 1.341104507450D-07-2.541671433700D+00 1.061707735060D-07
    9.352154693070D-01 1.869375000000D+02-1.662525025190D+00-7.979260939680D-09
   -1.732215010850D-10 1.000000000000D+00 1.441000000000D+03 0.000000000000D+00
    5.700000000000D+00 6.300000000000D+01-2.328306436540D-09 3.770000000000D+02
    6.481800000000D+04 4.000000000000D+00
 8 07  8 19 20  0  0.0-1.195212826130D-04-1.477928890380D-12 0.000000000000D+00
    1.840000000000D+02-1.896875000000D+01 4.181245572000D-09-2.061168828120D+00
   -9.480863809590D-07 1.007639837920D-02 7.910653948780D-06 5.153683975220D+03
    7.200000000000D+04-1.713633537290D-07 1.758589293450D+00-8.009374141690D-08
    9.791249539930D-01 2.441875000000D+02 2.785212435480D+00-7.783181210640D-09
    4.243033979720D-10 1.000000000000D+00 1.441000000000D+03 0.000000000000D+00
    2.000000000000D+00 0.000000000000D+00-3.725290298460D-09 1.840000000000D+02
    6.481800000000D+04 4.000000000000D+00
